ORBCOMM FM115           
1 41186U 15081H   24301.84732309  .00004848  00000+0  10019-2 0  9997
2 41186  46.9982  63.8484 0000506 271.8532  88.2297 14.61505789473772
ORBCOMM FM108           
1 41187U 15081J   24301.90097413  .00004265  00000+0  96991-3 0  9992
2 41187  47.0024 123.3467 0002531 292.0141  68.0475 14.57296604472902
ORBCOMM FM117           
1 41188U 15081K   24301.86719149  .00002378  00000+0  55739-3 0  9993
2 41188  46.9998 122.3456 0002860 312.4970  47.5674 14.57290212472946
ORBCOMM FM116           
1 41189U 15081L   24301.92532283  .00004518  00000+0  10249-2 0  9997
2 41189  47.0006 211.9084 0001845  52.3382 307.7671 14.57309282471765
